1 27424U 02022A   12068.35734742  .00000671  00000-0  15889-3 0  2336
2 27424 098.2257 010.3208 0001325 076.8655 283.2691 14.57125109523686